[{"OBJECT_NAME":"YAOGAN-43 01G","OBJECT_ID":"2024-148G","EPOCH":"2026-03-09T10:38:37.087584","MEAN_MOTION":15.28332833,"ECCENTRICITY":0.00073829,"INCLINATION":35.0006,"RA_OF_ASC_NODE":62.0013,"ARG_OF_PERICENTER":306.3543,"MEAN_ANOMALY":53.6492,"EPHEMERIS_TYPE":0,"CLASSIFICATION_TYPE":"U","NORAD_CAT_ID":60464,"ELEMENT_SET_NO":999,"REV_AT_EPOCH":8700,"BSTAR":0.00035872736,"MEAN_MOTION_DOT":0.00010133,"MEAN_MOTION_DDOT":0},{"OBJECT_NAME":"STARLINK-35634","OBJECT_ID":"2025-240AD","EPOCH":"2026-03-09T09:09:18.779904","MEAN_MOTION":15.30195218,"ECCENTRICITY":0.00014209,"INCLINATION":53.1608,"RA_OF_ASC_NODE":64.0604,"ARG_OF_PERICENTER":67.6552,"MEAN_ANOMALY":292.4599,"EPHEMERIS_TYPE":0,"CLASSIFICATION_TYPE":"U","NORAD_CAT_ID":66173,"ELEMENT_SET_NO":999,"REV_AT_EPOCH":2194,"BSTAR":0.0011352037,"MEAN_MOTION_DOT":0.00033409,"MEAN_MOTION_DDOT":0}]
