YAOGAN-43 01G           
1 60464U 24148G   26068.44348481  .00010133  00000+0  35873-3 0  9993
2 60464  35.0006  62.0013 0007382 306.3543  53.6492 15.28332833 87004
STARLINK-35634          
1 66173U 25240AD  26068.38146736  .00033409  00000+0  11352-2 0  9998
2 66173  53.1608  64.0604 0001420  67.6552 292.4599 15.30195218 21947
